ORBCOMM FM33            
1 25983U 99065D   24177.32436816  .00000890  00000+0  33900-3 0  9994
2 25983  45.0290 252.9485 0006366  63.4217 296.7284 14.37868963284667
ORBCOMM FM36            
1 25984U 99065E   24177.57027011  .00001567  00000+0  58538-3 0  9991
2 25984  45.0413 338.0678 0003253 284.2272  75.8215 14.35783020283129
ORBCOMM FM35            
1 25985U 99065F   24176.93061302  .00000936  00000+0  37269-3 0  9999
2 25985  45.0414 343.8926 0002446  63.6474 296.4624 14.35305700283420
ORBCOMM FM34            
1 25986U 99065G   24176.55396483  .00001002  00000+0  39560-3 0  9990
2 25986  45.0410 346.2128 0002703 343.2676  16.8082 14.35277800283482
ORBCOMM FM38            
1 33060U 08031A   24177.27601452  .00001457  00000+0  22928-3 0  9994
2 33060  48.4405 211.9163 0006310 309.0579  50.9773 14.77838996861890
ORBCOMM FM41            
1 33061U 08031B   24177.34747312  .00001464  00000+0  23176-3 0  9993
2 33061  48.4440 218.3071 0005522 297.1056 155.0042 14.77565761861400
ORBCOMM FM29            
1 33062U 08031C   24177.25972941  .00001519  00000+0  23964-3 0  9998
2 33062  48.4396 226.7589 0007360 294.1175 102.6691 14.77510995861305
ORBCOMM FM39            
1 33063U 08031D   24176.70850000  .00001466  00000+0  23781-3 0  9997
2 33063  48.4415 250.2359 0008230 268.3365  91.6606 14.76471640860917
